{
  "type": "FeatureCollection",
  "features": [
    {
      "type": "Feature",
      "properties": {
        "gauge_id": "USGS_03335500",
        "station_name": "Wabash River at Lafayette, IN",
        "state": "Indiana",
        "huc8": "05120108"
      },
      "geometry": {
        "type": "Polygon",
        "coordinates": [
          [
            [
              -87.05,
              40.35
            ],
            [
              -86.75,
              40.35
            ],
            [
              -86.7,
              40.5
            ],
            [
              -86.85,
              40.65
            ],
            [
              -87.1,
              40.55
            ],
            [
              -87.05,
              40.35
            ]
          ]
        ]
      }
    },
    {
      "type": "Feature",
      "properties": {
        "gauge_id": "USGS_03335700",
        "station_name": "Wildcat Creek near Lafayette, IN",
        "state": "Indiana",
        "huc8": "05120107"
      },
      "geometry": {
        "type": "Polygon",
        "coordinates": [
          [
            [
              -86.95,
              40.4
            ],
            [
              -86.55,
              40.42
            ],
            [
              -86.5,
              40.58
            ],
            [
              -86.8,
              40.62
            ],
            [
              -86.95,
              40.4
            ]
          ]
        ]
      }
    },
    {
      "type": "Feature",
      "properties": {
        "gauge_id": "USGS_03336000",
        "station_name": "Tippecanoe River near Delphi, IN",
        "state": "Indiana",
        "huc8": "05120106"
      },
      "geometry": {
        "type": "Polygon",
        "coordinates": [
          [
            [
              -86.85,
              40.55
            ],
            [
              -86.45,
              40.6
            ],
            [
              -86.4,
              40.85
            ],
            [
              -86.75,
              40.9
            ],
            [
              -86.85,
              40.55
            ]
          ]
        ]
      }
    }
  ]
}